*******************************************************************************
JPL/HORIZONS            4275 Bogustafson (1981 EW14)       2023-Sep-04 11:28:17
Rec #:    4275 (+COV) Soln.date: 2023-Aug-23_17:22:57   # obs: 2039 (1931-2023)
 
IAU76/J2000 helio. ecliptic osc. elements (au, days, deg., period=Julian yrs):
 
  EPOCH=  2457738.5 ! 2016-Dec-16.00 (TDB)         Residual RMS= .26506
   EC= .1775669850893503   QR= 2.183538009278926   TP= 2458242.908717053
   OM= 335.9639936506096   W=  47.73042658419114   IN= 13.02369033184428
   A= 2.654973681371666    MA= 245.0798122690088   ADIST= 3.126409353464406
   PER= 4.32612            N= .227831486           ANGMOM= .027583834
   DAN= 2.29693            DDN= 2.92001            L= 22.9504158
   B= 9.5994498            MOID= 1.20694005        TP= 2018-May-04.4087170530
 
Asteroid physical parameters (km, seconds, rotational period in hours):
   GM= n.a.                RAD= 1.8755             ROTPER= n.a.
   H= 14.26                G= .150                 B-V= n.a.
                           ALBEDO= .346            STYP= n.a.

ASTEROID comments: 
1: soln ref.= JPL#40, OCC=0
2: source=ORB
*******************************************************************************


*******************************************************************************
Ephemeris / API_USER Mon Sep  4 11:28:17 2023 Pasadena, USA      / Horizons
*******************************************************************************
Target body name: 4275 Bogustafson (1981 EW14)    {source: JPL#40}
Center body name: Solar System Barycenter (0)     {source: DE441}
Center-site name: BODY CENTER
*******************************************************************************
Start time      : A.D. 2023-Aug-12 00:00:00.0000 TDB
Stop  time      : A.D. 2023-Aug-13 00:00:00.0000 TDB
Step-size       : 2880 minutes
*******************************************************************************
Center geodetic : 0.0, 0.0, 0.0                   {E-lon(deg),Lat(deg),Alt(km)}
Center cylindric: 0.0, 0.0, 0.0                   {E-lon(deg),Dxy(km),Dz(km)}
Center radii    : (undefined)
Small perturbers: Yes                             {source: SB441-N16}
Output units    : KM-S
Calendar mode   : Mixed Julian/Gregorian
Output type     : GEOMETRIC cartesian states
Output format   : 2 (position and velocity)
Reference frame : Ecliptic of J2000.0
*******************************************************************************
Initial IAU76/J2000 heliocentric ecliptic osculating elements (au, days, deg.):
  EPOCH=  2457738.5 ! 2016-Dec-16.00 (TDB)         Residual RMS= .26506        
   EC= .1775669850893503   QR= 2.183538009278926   TP= 2458242.908717053       
   OM= 335.9639936506096   W=  47.73042658419114   IN= 13.02369033184428       
  Equivalent ICRF heliocentric cartesian coordinates (au, au/d):
   X=-8.636510741181812E-01  Y=-2.222959249707420E+00  Z=-1.675504029244212E+00
  VX= 9.419591058304555E-03 VY=-1.689439296727564E-03 VZ=-1.344012067667094E-04
Asteroid physical parameters (km, seconds, rotational period in hours):        
   GM= n.a.                RAD= 1.8755             ROTPER= n.a.                
   H= 14.26                G= .150                 B-V= n.a.                   
                           ALBEDO= .346            STYP= n.a.                  
*******************************************************************************
JDTDB
   X     Y     Z
   VX    VY    VZ
*******************************************************************************
$$SOE
2460168.500000000 = A.D. 2023-Aug-12 00:00:00.0000 TDB 
 X =-2.179063679723689E+08 Y = 3.281925105904995E+08 Z = 4.897038634980483E+07
 VX=-1.677260048174740E+01 VY=-6.707173527735099E+00 VZ=-2.995367688071146E+00
$$EOE
*******************************************************************************
 
TIME

  Barycentric Dynamical Time ("TDB" or T_eph) output was requested. This
continuous coordinate time is equivalent to the relativistic proper time
of a clock at rest in a reference frame co-moving with the solar system
barycenter but outside the system's gravity well. It is the independent
variable in the solar system relativistic equations of motion.

  TDB runs at a uniform rate of one SI second per second and is independent
of irregularities in Earth's rotation.
 
CALENDAR SYSTEM

  Mixed calendar mode was active such that calendar dates after AD 1582-Oct-15
(if any) are in the modern Gregorian system. Dates prior to 1582-Oct-5 (if any)
are in the Julian calendar system, which is automatically extended for dates
prior to its adoption on 45-Jan-1 BC.  The Julian calendar is useful for
matching historical dates. The Gregorian calendar more accurately corresponds
to the Earth's orbital motion and seasons. A "Gregorian-only" calendar mode is
available if such physical events are the primary interest.

REFERENCE FRAME AND COORDINATES

  Ecliptic at the standard reference epoch

    Reference epoch: J2000.0
    X-Y plane: adopted Earth orbital plane at the reference epoch
               Note: IAU76 obliquity of 84381.448 arcseconds wrt ICRF X-Y plane
    X-axis   : ICRF
    Z-axis   : perpendicular to the X-Y plane in the directional (+ or -) sense
               of Earth's north pole at the reference epoch.

  Symbol meaning:

    JDTDB    Julian Day Number, Barycentric Dynamical Time
      X      X-component of position vector (km)
      Y      Y-component of position vector (km)
      Z      Z-component of position vector (km)
      VX     X-component of velocity vector (km/sec)                           
      VY     Y-component of velocity vector (km/sec)                           
      VZ     Z-component of velocity vector (km/sec)                           

ABERRATIONS AND CORRECTIONS

 Geometric state vectors have NO corrections or aberrations applied.

Computations by ...

    Solar System Dynamics Group, Horizons On-Line Ephemeris System
    4800 Oak Grove Drive, Jet Propulsion Laboratory
    Pasadena, CA  91109   USA

    General site: https://ssd.jpl.nasa.gov/
    Mailing list: https://ssd.jpl.nasa.gov/email_list.html
    System news : https://ssd.jpl.nasa.gov/horizons/news.html
    User Guide  : https://ssd.jpl.nasa.gov/horizons/manual.html
    Connect     : browser        https://ssd.jpl.nasa.gov/horizons/app.html#/x
                  API            https://ssd-api.jpl.nasa.gov/doc/horizons.html
                  command-line   telnet ssd.jpl.nasa.gov 6775
                  e-mail/batch   https://ssd.jpl.nasa.gov/ftp/ssd/hrzn_batch.txt
                  scripts        https://ssd.jpl.nasa.gov/ftp/ssd/SCRIPTS
    Author      : Jon.D.Giorgini@jpl.nasa.gov
*******************************************************************************
